TRANSPORTER-12 OBJECT BT
1 62674U 25009BT  26068.71416991  .00013824  00000+0  51029-3 0  9998
2 62674  97.4094 151.5992 0003682 313.5044  46.5889 15.27872239121360
STARLINK-35646          
1 66859U 25281M   26068.09242339  .00042308  00000+0  15374-2 0  9994
2 66859  43.0034 346.8924 0001953 259.9846 100.0785 15.27595831 16090
